STARLINK-5255           
1 54208U 22141BD  26082.24146846 -.00001219  00000+0 -58509-4 0  9997
2 54208  53.2173 268.3309 0001178  95.1467 264.9660 15.08843537188398
STARLINK-5259           
1 54209U 22141BE  26082.27497633  .00001825  00000+0  13267-3 0  9996
2 54209  53.2164 282.7926 0001641  79.6625 280.4553 15.08859747188194
STARLINK-5464           
1 54758U 22175A   26082.11728689 -.00000917  00000+0 -39556-4 0  9996
2 54758  53.2186 339.0357 0001204  87.1421 272.9709 15.08833486182010
STARLINK-5215           
1 54759U 22175B   26081.85601200  .00000148  00000+0  27391-4 0  9994
2 54759  53.2202 340.2391 0001588 116.4568 243.6587 15.08827018181972
STARLINK-5220           
1 54760U 22175C   26082.11866930 -.00004485  00000+0 -26396-3 0  9992
2 54760  53.2170 344.0267 0001479  78.5978 281.5180 15.08825115181947
STARLINK-5202           
1 54761U 22175D   26081.72491427 -.00000647  00000+0 -22576-4 0  9997
2 54761  53.2175 345.8317 0001787  92.3862 267.7335 15.08831668181887
STARLINK-5214           
1 54762U 22175E   26081.71016602 -.00002607  00000+0 -14569-3 0  9995
2 54762  53.2170 345.7442 0002542  87.7224 272.4059 15.08850591181883
STARLINK-5191           
1 54763U 22175F   26082.11498586 -.00001992  00000+0 -10711-3 0  9997
2 54763  53.2172 344.0026 0001427  91.2330 268.8826 15.08833250181946
STARLINK-5458           
1 54764U 22175G   26082.09384415 -.00002513  00000+0 -13991-3 0  9993
2 54764  53.2189 343.8785 0001435  85.7051 274.4105 15.08822382181948
STARLINK-5471           
1 54766U 22175J   26082.16648886 -.00001626  00000+0 -84101-4 0  9994
2 54766  53.2174 343.6160 0001362  89.2922 270.8226 15.08829428181957
STARLINK-5472           
1 54767U 22175K   26082.03031795 -.00001532  00000+0 -78187-4 0  9999
2 54767  53.2188 344.1865 0001610  82.0613 278.0562 15.08837219181933
STARLINK-5444           
1 54768U 22175L   26081.93519966 -.00002370  00000+0 -13091-3 0  9992
2 54768  53.2187 330.0487 0001312  89.7151 270.3992 15.08825154182126
STARLINK-5448           
1 54770U 22175N   26081.84956704  .00001467  00000+0  11024-3 0  9998
2 54770  53.2206 330.2313 0001725  98.2163 261.9025 15.08839049182117
STARLINK-5451           
1 54771U 22175P   26082.14667772 -.00001373  00000+0 -68205-4 0  9999
2 54771  53.2175 338.5116 0001335  84.6618 275.4527 15.08826375182021
STARLINK-5452           
1 54772U 22175Q   26082.11084376 -.00001569  00000+0 -80508-4 0  9997
2 54772  53.2192 329.0158 0001396  91.4115 268.7038 15.08829705182153
STARLINK-5453           
1 54773U 22175R   26082.02294765 -.00005189  00000+0 -30831-3 0  9998
2 54773  53.2180 344.1438 0001443  89.7038 270.4120 15.08822630181934
