[{"OBJECT_NAME":"STARLINK-5255","OBJECT_ID":"2022-141BD","EPOCH":"2026-03-23T05:47:42.874944","MEAN_MOTION":15.08843537,"ECCENTRICITY":0.00011787,"INCLINATION":53.2173,"RA_OF_ASC_NODE":268.3309,"ARG_OF_PERICENTER":95.1467,"MEAN_ANOMALY":264.966,"EPHEMERIS_TYPE":0,"CLASSIFICATION_TYPE":"U","NORAD_CAT_ID":54208,"ELEMENT_SET_NO":999,"REV_AT_EPOCH":18839,"BSTAR":-5.850947e-5,"MEAN_MOTION_DOT":-1.219e-5,"MEAN_MOTION_DDOT":0},{"OBJECT_NAME":"STARLINK-5259","OBJECT_ID":"2022-141BE","EPOCH":"2026-03-23T06:35:57.954912","MEAN_MOTION":15.08859747,"ECCENTRICITY":0.00016419,"INCLINATION":53.2164,"RA_OF_ASC_NODE":282.7926,"ARG_OF_PERICENTER":79.6625,"MEAN_ANOMALY":280.4553,"EPHEMERIS_TYPE":0,"CLASSIFICATION_TYPE":"U","NORAD_CAT_ID":54209,"ELEMENT_SET_NO":999,"REV_AT_EPOCH":18819,"BSTAR":0.00013267179,"MEAN_MOTION_DOT":1.825e-5,"MEAN_MOTION_DDOT":0},{"OBJECT_NAME":"STARLINK-5464","OBJECT_ID":"2022-175A","EPOCH":"2026-03-23T02:48:53.587296","MEAN_MOTION":15.08833486,"ECCENTRICITY":0.0001204,"INCLINATION":53.2186,"RA_OF_ASC_NODE":339.0357,"ARG_OF_PERICENTER":87.1421,"MEAN_ANOMALY":272.9709,"EPHEMERIS_TYPE":0,"CLASSIFICATION_TYPE":"U","NORAD_CAT_ID":54758,"ELEMENT_SET_NO":999,"REV_AT_EPOCH":18201,"BSTAR":-3.9555763e-5,"MEAN_MOTION_DOT":-9.17e-6,"MEAN_MOTION_DDOT":0},{"OBJECT_NAME":"STARLINK-5215","OBJECT_ID":"2022-175B","EPOCH":"2026-03-22T20:32:39.436800","MEAN_MOTION":15.08827018,"ECCENTRICITY":0.00015889,"INCLINATION":53.2202,"RA_OF_ASC_NODE":340.2391,"ARG_OF_PERICENTER":116.4568,"MEAN_ANOMALY":243.6587,"EPHEMERIS_TYPE":0,"CLASSIFICATION_TYPE":"U","NORAD_CAT_ID":54759,"ELEMENT_SET_NO":999,"REV_AT_EPOCH":18197,"BSTAR":2.7391388e-5,"MEAN_MOTION_DOT":1.48e-6,"MEAN_MOTION_DDOT":0},{"OBJECT_NAME":"STARLINK-5220","OBJECT_ID":"2022-175C","EPOCH":"2026-03-23T02:50:53.027520","MEAN_MOTION":15.08825115,"ECCENTRICITY":0.00014796,"INCLINATION":53.217,"RA_OF_ASC_NODE":344.0267,"ARG_OF_PERICENTER":78.5978,"MEAN_ANOMALY":281.518,"EPHEMERIS_TYPE":0,"CLASSIFICATION_TYPE":"U","NORAD_CAT_ID":54760,"ELEMENT_SET_NO":999,"REV_AT_EPOCH":18194,"BSTAR":-0.00026396151,"MEAN_MOTION_DOT":-4.485e-5,"MEAN_MOTION_DDOT":0},{"OBJECT_NAME":"STARLINK-5202","OBJECT_ID":"2022-175D","EPOCH":"2026-03-22T17:23:52.592928","MEAN_MOTION":15.08831668,"ECCENTRICITY":0.00017876,"INCLINATION":53.2175,"RA_OF_ASC_NODE":345.8317,"ARG_OF_PERICENTER":92.3862,"MEAN_ANOMALY":267.7335,"EPHEMERIS_TYPE":0,"CLASSIFICATION_TYPE":"U","NORAD_CAT_ID":54761,"ELEMENT_SET_NO":999,"REV_AT_EPOCH":18188,"BSTAR":-2.2575658e-5,"MEAN_MOTION_DOT":-6.47e-6,"MEAN_MOTION_DDOT":0},{"OBJECT_NAME":"STARLINK-5214","OBJECT_ID":"2022-175E","EPOCH":"2026-03-22T17:02:38.344128","MEAN_MOTION":15.08850591,"ECCENTRICITY":0.0002542,"INCLINATION":53.217,"RA_OF_ASC_NODE":345.7442,"ARG_OF_PERICENTER":87.7224,"MEAN_ANOMALY":272.4059,"EPHEMERIS_TYPE":0,"CLASSIFICATION_TYPE":"U","NORAD_CAT_ID":54762,"ELEMENT_SET_NO":999,"REV_AT_EPOCH":18188,"BSTAR":-0.00014568613,"MEAN_MOTION_DOT":-2.607e-5,"MEAN_MOTION_DDOT":0},{"OBJECT_NAME":"STARLINK-5191","OBJECT_ID":"2022-175F","EPOCH":"2026-03-23T02:45:34.778304","MEAN_MOTION":15.0883325,"ECCENTRICITY":0.00014276,"INCLINATION":53.2172,"RA_OF_ASC_NODE":344.0026,"ARG_OF_PERICENTER":91.233,"MEAN_ANOMALY":268.8826,"EPHEMERIS_TYPE":0,"CLASSIFICATION_TYPE":"U","NORAD_CAT_ID":54763,"ELEMENT_SET_NO":999,"REV_AT_EPOCH":18194,"BSTAR":-0.00010710614,"MEAN_MOTION_DOT":-1.992e-5,"MEAN_MOTION_DDOT":0},{"OBJECT_NAME":"STARLINK-5458","OBJECT_ID":"2022-175G","EPOCH":"2026-03-23T02:15:08.134560","MEAN_MOTION":15.08822382,"ECCENTRICITY":0.00014359,"INCLINATION":53.2189,"RA_OF_ASC_NODE":343.8785,"ARG_OF_PERICENTER":85.7051,"MEAN_ANOMALY":274.4105,"EPHEMERIS_TYPE":0,"CLASSIFICATION_TYPE":"U","NORAD_CAT_ID":54764,"ELEMENT_SET_NO":999,"REV_AT_EPOCH":18194,"BSTAR":-0.00013990596,"MEAN_MOTION_DOT":-2.513e-5,"MEAN_MOTION_DDOT":0},{"OBJECT_NAME":"STARLINK-5471","OBJECT_ID":"2022-175J","EPOCH":"2026-03-23T03:59:44.637504","MEAN_MOTION":15.08829428,"ECCENTRICITY":0.00013624,"INCLINATION":53.2174,"RA_OF_ASC_NODE":343.616,"ARG_OF_PERICENTER":89.2922,"MEAN_ANOMALY":270.8226,"EPHEMERIS_TYPE":0,"CLASSIFICATION_TYPE":"U","NORAD_CAT_ID":54766,"ELEMENT_SET_NO":999,"REV_AT_EPOCH":18195,"BSTAR":-8.4100794e-5,"MEAN_MOTION_DOT":-1.626e-5,"MEAN_MOTION_DDOT":0},{"OBJECT_NAME":"STARLINK-5472","OBJECT_ID":"2022-175K","EPOCH":"2026-03-23T00:43:39.470880","MEAN_MOTION":15.08837219,"ECCENTRICITY":0.00016102,"INCLINATION":53.2188,"RA_OF_ASC_NODE":344.1865,"ARG_OF_PERICENTER":82.0613,"MEAN_ANOMALY":278.0562,"EPHEMERIS_TYPE":0,"CLASSIFICATION_TYPE":"U","NORAD_CAT_ID":54767,"ELEMENT_SET_NO":999,"REV_AT_EPOCH":18193,"BSTAR":-7.8187371e-5,"MEAN_MOTION_DOT":-1.532e-5,"MEAN_MOTION_DDOT":0},{"OBJECT_NAME":"STARLINK-5444","OBJECT_ID":"2022-175L","EPOCH":"2026-03-22T22:26:41.250624","MEAN_MOTION":15.08825154,"ECCENTRICITY":0.00013123,"INCLINATION":53.2187,"RA_OF_ASC_NODE":330.0487,"ARG_OF_PERICENTER":89.7151,"MEAN_ANOMALY":270.3992,"EPHEMERIS_TYPE":0,"CLASSIFICATION_TYPE":"U","NORAD_CAT_ID":54768,"ELEMENT_SET_NO":999,"REV_AT_EPOCH":18212,"BSTAR":-0.00013091485,"MEAN_MOTION_DOT":-2.37e-5,"MEAN_MOTION_DDOT":0},{"OBJECT_NAME":"STARLINK-5448","OBJECT_ID":"2022-175N","EPOCH":"2026-03-22T20:23:22.592256","MEAN_MOTION":15.08839049,"ECCENTRICITY":0.00017257,"INCLINATION":53.2206,"RA_OF_ASC_NODE":330.2313,"ARG_OF_PERICENTER":98.2163,"MEAN_ANOMALY":261.9025,"EPHEMERIS_TYPE":0,"CLASSIFICATION_TYPE":"U","NORAD_CAT_ID":54770,"ELEMENT_SET_NO":999,"REV_AT_EPOCH":18211,"BSTAR":0.00011024486,"MEAN_MOTION_DOT":1.467e-5,"MEAN_MOTION_DDOT":0},{"OBJECT_NAME":"STARLINK-5451","OBJECT_ID":"2022-175P","EPOCH":"2026-03-23T03:31:12.955008","MEAN_MOTION":15.08826375,"ECCENTRICITY":0.00013355,"INCLINATION":53.2175,"RA_OF_ASC_NODE":338.5116,"ARG_OF_PERICENTER":84.6618,"MEAN_ANOMALY":275.4527,"EPHEMERIS_TYPE":0,"CLASSIFICATION_TYPE":"U","NORAD_CAT_ID":54771,"ELEMENT_SET_NO":999,"REV_AT_EPOCH":18202,"BSTAR":-6.8205474e-5,"MEAN_MOTION_DOT":-1.373e-5,"MEAN_MOTION_DDOT":0},{"OBJECT_NAME":"STARLINK-5452","OBJECT_ID":"2022-175Q","EPOCH":"2026-03-23T02:39:36.900864","MEAN_MOTION":15.08829705,"ECCENTRICITY":0.00013969,"INCLINATION":53.2192,"RA_OF_ASC_NODE":329.0158,"ARG_OF_PERICENTER":91.4115,"MEAN_ANOMALY":268.7038,"EPHEMERIS_TYPE":0,"CLASSIFICATION_TYPE":"U","NORAD_CAT_ID":54772,"ELEMENT_SET_NO":999,"REV_AT_EPOCH":18215,"BSTAR":-8.0508362e-5,"MEAN_MOTION_DOT":-1.569e-5,"MEAN_MOTION_DDOT":0},{"OBJECT_NAME":"STARLINK-5453","OBJECT_ID":"2022-175R","EPOCH":"2026-03-23T00:33:02.676960","MEAN_MOTION":15.0882263,"ECCENTRICITY":0.00014437,"INCLINATION":53.218,"RA_OF_ASC_NODE":344.1438,"ARG_OF_PERICENTER":89.7038,"MEAN_ANOMALY":270.412,"EPHEMERIS_TYPE":0,"CLASSIFICATION_TYPE":"U","NORAD_CAT_ID":54773,"ELEMENT_SET_NO":999,"REV_AT_EPOCH":18193,"BSTAR":-0.00030831179,"MEAN_MOTION_DOT":-5.189e-5,"MEAN_MOTION_DDOT":0}]
